[{"OBJECT_NAME":"ASTRA 5B (EGNOS\/PRN 123)","OBJECT_ID":"2014-011B","EPOCH":"2024-06-18T00:26:41.693568","MEAN_MOTION":1.00274366,"ECCENTRICITY":0.0002229,"INCLINATION":0.0431,"RA_OF_ASC_NODE":337.3971,"ARG_OF_PERICENTER":89.3883,"MEAN_ANOMALY":230.1371,"EPHEMERIS_TYPE":0,"CLASSIFICATION_TYPE":"U","NORAD_CAT_ID":39617,"ELEMENT_SET_NO":999,"REV_AT_EPOCH":3755,"BSTAR":0,"MEAN_MOTION_DOT":1.6e-6,"MEAN_MOTION_DDOT":0},{"OBJECT_NAME":"COSMOS 2492 (754)","OBJECT_ID":"2014-012A","EPOCH":"2024-06-17T04:04:41.335104","MEAN_MOTION":2.13103277,"ECCENTRICITY":0.001119,"INCLINATION":65.6741,"RA_OF_ASC_NODE":338.6296,"ARG_OF_PERICENTER":328.9298,"MEAN_ANOMALY":31.0161,"EPHEMERIS_TYPE":0,"CLASSIFICATION_TYPE":"U","NORAD_CAT_ID":39620,"ELEMENT_SET_NO":999,"REV_AT_EPOCH":7968,"BSTAR":0,"MEAN_MOTION_DOT":-5.0e-7,"MEAN_MOTION_DDOT":0},{"OBJECT_NAME":"IRNSS-1B","OBJECT_ID":"2014-017A","EPOCH":"2024-06-17T19:18:42.878016","MEAN_MOTION":1.00271072,"ECCENTRICITY":0.0022696,"INCLINATION":28.9807,"RA_OF_ASC_NODE":252.8158,"ARG_OF_PERICENTER":183.4499,"MEAN_ANOMALY":175.0792,"EPHEMERIS_TYPE":0,"CLASSIFICATION_TYPE":"U","NORAD_CAT_ID":39635,"ELEMENT_SET_NO":999,"REV_AT_EPOCH":3747,"BSTAR":0,"MEAN_MOTION_DOT":1.25e-6,"MEAN_MOTION_DDOT":0},{"OBJECT_NAME":"LUCH 5V (SDCM\/PRN 141)","OBJECT_ID":"2014-023A","EPOCH":"2024-06-18T03:46:42.547296","MEAN_MOTION":1.00276636,"ECCENTRICITY":0.0001806,"INCLINATION":3.299,"RA_OF_ASC_NODE":76.035,"ARG_OF_PERICENTER":54.4897,"MEAN_ANOMALY":287.6895,"EPHEMERIS_TYPE":0,"CLASSIFICATION_TYPE":"U","NORAD_CAT_ID":39727,"ELEMENT_SET_NO":999,"REV_AT_EPOCH":55519,"BSTAR":0,"MEAN_MOTION_DOT":-2.49e-6,"MEAN_MOTION_DDOT":0},{"OBJECT_NAME":"GPS BIIF-6  (PRN 06)","OBJECT_ID":"2014-026A","EPOCH":"2024-06-17T12:57:21.963456","MEAN_MOTION":2.005685,"ECCENTRICITY":0.0031043,"INCLINATION":56.7103,"RA_OF_ASC_NODE":359.8534,"ARG_OF_PERICENTER":316.9528,"MEAN_ANOMALY":42.8394,"EPHEMERIS_TYPE":0,"CLASSIFICATION_TYPE":"U","NORAD_CAT_ID":39741,"ELEMENT_SET_NO":999,"REV_AT_EPOCH":7390,"BSTAR":0,"MEAN_MOTION_DOT":-7.5e-7,"MEAN_MOTION_DDOT":0},{"OBJECT_NAME":"COSMOS 2500 (755)","OBJECT_ID":"2014-032A","EPOCH":"2024-06-17T08:22:59.336832","MEAN_MOTION":2.13106155,"ECCENTRICITY":0.000623,"INCLINATION":65.6113,"RA_OF_ASC_NODE":338.4287,"ARG_OF_PERICENTER":183.9971,"MEAN_ANOMALY":176.0098,"EPHEMERIS_TYPE":0,"CLASSIFICATION_TYPE":"U","NORAD_CAT_ID":40001,"ELEMENT_SET_NO":999,"REV_AT_EPOCH":7790,"BSTAR":0,"MEAN_MOTION_DOT":-5.0e-7,"MEAN_MOTION_DDOT":0},{"OBJECT_NAME":"GPS BIIF-7  (PRN 09)","OBJECT_ID":"2014-045A","EPOCH":"2024-06-18T03:09:38.759040","MEAN_MOTION":2.00566409,"ECCENTRICITY":0.0025581,"INCLINATION":54.9315,"RA_OF_ASC_NODE":117.5709,"ARG_OF_PERICENTER":115.162,"MEAN_ANOMALY":245.0727,"EPHEMERIS_TYPE":0,"CLASSIFICATION_TYPE":"U","NORAD_CAT_ID":40105,"ELEMENT_SET_NO":999,"REV_AT_EPOCH":7234,"BSTAR":0,"MEAN_MOTION_DOT":1.4e-7,"MEAN_MOTION_DDOT":0},{"OBJECT_NAME":"GSAT0201 (PRN E18)","OBJECT_ID":"2014-050A","EPOCH":"2024-06-17T02:05:53.163168","MEAN_MOTION":1.85519519,"ECCENTRICITY":0.1611591,"INCLINATION":49.6606,"RA_OF_ASC_NODE":303.0682,"ARG_OF_PERICENTER":151.2436,"MEAN_ANOMALY":218.7063,"EPHEMERIS_TYPE":0,"CLASSIFICATION_TYPE":"U","NORAD_CAT_ID":40128,"ELEMENT_SET_NO":999,"REV_AT_EPOCH":6477,"BSTAR":0,"MEAN_MOTION_DOT":-9.7e-7,"MEAN_MOTION_DDOT":0},{"OBJECT_NAME":"GSAT0202 (PRN E14)","OBJECT_ID":"2014-050B","EPOCH":"2024-06-17T08:17:49.742304","MEAN_MOTION":1.85520149,"ECCENTRICITY":0.1610355,"INCLINATION":49.6772,"RA_OF_ASC_NODE":302.1346,"ARG_OF_PERICENTER":152.0548,"MEAN_ANOMALY":217.6396,"EPHEMERIS_TYPE":0,"CLASSIFICATION_TYPE":"U","NORAD_CAT_ID":40129,"ELEMENT_SET_NO":999,"REV_AT_EPOCH":6694,"BSTAR":0,"MEAN_MOTION_DOT":-9.5e-7,"MEAN_MOTION_DDOT":0},{"OBJECT_NAME":"IRNSS-1C","OBJECT_ID":"2014-061A","EPOCH":"2024-06-17T19:12:42.721344","MEAN_MOTION":1.00269381,"ECCENTRICITY":0.0021277,"INCLINATION":4.6726,"RA_OF_ASC_NODE":104.7325,"ARG_OF_PERICENTER":5.0559,"MEAN_ANOMALY":167.9255,"EPHEMERIS_TYPE":0,"CLASSIFICATION_TYPE":"U","NORAD_CAT_ID":40269,"ELEMENT_SET_NO":999,"REV_AT_EPOCH":3537,"BSTAR":0,"MEAN_MOTION_DOT":-1.41e-6,"MEAN_MOTION_DDOT":0},{"OBJECT_NAME":"GPS BIIF-8  (PRN 03)","OBJECT_ID":"2014-068A","EPOCH":"2024-06-17T00:10:08.550624","MEAN_MOTION":2.00559874,"ECCENTRICITY":0.0053885,"INCLINATION":56.4206,"RA_OF_ASC_NODE":59.2472,"ARG_OF_PERICENTER":62.1029,"MEAN_ANOMALY":298.4791,"EPHEMERIS_TYPE":0,"CLASSIFICATION_TYPE":"U","NORAD_CAT_ID":40294,"ELEMENT_SET_NO":999,"REV_AT_EPOCH":7056,"BSTAR":0,"MEAN_MOTION_DOT":-7.4e-7,"MEAN_MOTION_DDOT":0},{"OBJECT_NAME":"COSMOS 2501 (702K)","OBJECT_ID":"2014-075A","EPOCH":"2024-06-17T14:27:39.007584","MEAN_MOTION":2.13101574,"ECCENTRICITY":0.0020814,"INCLINATION":63.6212,"RA_OF_ASC_NODE":215.662,"ARG_OF_PERICENTER":210.7599,"MEAN_ANOMALY":149.2028,"EPHEMERIS_TYPE":0,"CLASSIFICATION_TYPE":"U","NORAD_CAT_ID":40315,"ELEMENT_SET_NO":999,"REV_AT_EPOCH":7430,"BSTAR":0,"MEAN_MOTION_DOT":8.5e-7,"MEAN_MOTION_DDOT":0},{"OBJECT_NAME":"GPS BIIF-9  (PRN 26)","OBJECT_ID":"2015-013A","EPOCH":"2024-06-17T15:17:06.180576","MEAN_MOTION":2.00565578,"ECCENTRICITY":0.0087718,"INCLINATION":53.343,"RA_OF_ASC_NODE":234.3794,"ARG_OF_PERICENTER":29.7187,"MEAN_ANOMALY":330.8549,"EPHEMERIS_TYPE":0,"CLASSIFICATION_TYPE":"U","NORAD_CAT_ID":40534,"ELEMENT_SET_NO":999,"REV_AT_EPOCH":6719,"BSTAR":0,"MEAN_MOTION_DOT":3.9e-7,"MEAN_MOTION_DDOT":0},{"OBJECT_NAME":"GSAT0203 (PRN E26)","OBJECT_ID":"2015-017A","EPOCH":"2024-06-11T01:12:09.649152","MEAN_MOTION":1.70476074,"ECCENTRICITY":0.0001444,"INCLINATION":56.9241,"RA_OF_ASC_NODE":1.6332,"ARG_OF_PERICENTER":271.066,"MEAN_ANOMALY":88.9452,"EPHEMERIS_TYPE":0,"CLASSIFICATION_TYPE":"U","NORAD_CAT_ID":40544,"ELEMENT_SET_NO":999,"REV_AT_EPOCH":5665,"BSTAR":0,"MEAN_MOTION_DOT":-9.7e-7,"MEAN_MOTION_DDOT":0},{"OBJECT_NAME":"GSAT0204 (PRN E22)","OBJECT_ID":"2015-017B","EPOCH":"2024-06-17T04:05:02.279328","MEAN_MOTION":1.70475749,"ECCENTRICITY":0.0001414,"INCLINATION":56.9305,"RA_OF_ASC_NODE":1.4825,"ARG_OF_PERICENTER":218.187,"MEAN_ANOMALY":141.8385,"EPHEMERIS_TYPE":0,"CLASSIFICATION_TYPE":"U","NORAD_CAT_ID":40545,"ELEMENT_SET_NO":999,"REV_AT_EPOCH":1980,"BSTAR":0,"MEAN_MOTION_DOT":-7.5e-7,"MEAN_MOTION_DDOT":0},{"OBJECT_NAME":"IRNSS-1D","OBJECT_ID":"2015-018A","EPOCH":"2024-06-18T03:38:42.648000","MEAN_MOTION":1.00268401,"ECCENTRICITY":0.0023035,"INCLINATION":27.4841,"RA_OF_ASC_NODE":252.6922,"ARG_OF_PERICENTER":190.9084,"MEAN_ANOMALY":349.9463,"EPHEMERIS_TYPE":0,"CLASSIFICATION_TYPE":"U","NORAD_CAT_ID":40547,"ELEMENT_SET_NO":999,"REV_AT_EPOCH":3393,"BSTAR":0,"MEAN_MOTION_DOT":-2.61e-6,"MEAN_MOTION_DDOT":0},{"OBJECT_NAME":"BEIDOU-3S IGSO-1S (C31)","OBJECT_ID":"2015-019A","EPOCH":"2024-06-17T04:16:35.514048","MEAN_MOTION":1.00251012,"ECCENTRICITY":0.0038399,"INCLINATION":50.5747,"RA_OF_ASC_NODE":304.1919,"ARG_OF_PERICENTER":192.2249,"MEAN_ANOMALY":283.9065,"EPHEMERIS_TYPE":0,"CLASSIFICATION_TYPE":"U","NORAD_CAT_ID":40549,"ELEMENT_SET_NO":999,"REV_AT_EPOCH":3375,"BSTAR":0,"MEAN_MOTION_DOT":-1.63e-6,"MEAN_MOTION_DDOT":0}]
