BEIDOU-3S IGSO-1S (C31) 
1 40549U 15019A   24169.17818882 -.00000163  00000+0  00000+0 0  9992
2 40549  50.5747 304.1919 0038399 192.2249 283.9065  1.00251012 33753
GSAT0201 (PRN E18)      
1 40128U 14050A   24169.08742087 -.00000097  00000+0  00000+0 0  9998
2 40128  49.6606 303.0682 1611591 151.2436 218.7063  1.85519519 64771
GSAT0202 (PRN E14)      
1 40129U 14050B   24169.34571461 -.00000095  00000+0  00000+0 0  9992
2 40129  49.6772 302.1346 1610355 152.0548 217.6396  1.85520149 66942
GSAT0203 (PRN E26)      
1 40544U 15017A   24163.05011168 -.00000097  00000+0  00000+0 0  9994
2 40544  56.9241   1.6332 0001444 271.0660  88.9452  1.70476074 56650
GSAT0204 (PRN E22)      
1 40545U 15017B   24169.17016527 -.00000075  00000+0  00000+0 0  9994
2 40545  56.9305   1.4825 0001414 218.1870 141.8385  1.70475749 19807
ASTRA 5B                
1 39617U 14011B   24170.01853812  .00000160  00000+0  00000+0 0  9990
2 39617   0.0431 337.3971 0002229  89.3883 230.1371  1.00274366 37559
IRNSS-1B                
1 39635U 14017A   24169.80466294  .00000125  00000+0  00000+0 0  9996
2 39635  28.9807 252.8158 0022696 183.4499 175.0792  1.00271072 37478
LUCH-5V                 
1 39727U 14023A   24170.15743689 -.00000249  00000+0  00000+0 0  9999
2 39727   3.2990  76.0350 0001806  54.4897 287.6895  1.00276636555197
IRNSS-1C                
1 40269U 14061A   24169.80049446 -.00000141  00000+0  00000+0 0  9995
2 40269   4.6726 104.7325 0021277   5.0559 167.9255  1.00269381 35376
IRNSS-1D                
1 40547U 15018A   24170.15188250 -.00000261  00000+0  00000+0 0  9997
2 40547  27.4841 252.6922 0023035 190.9084 349.9463  1.00268401 33938
COSMOS 2492 (754)       
1 39620U 14012A   24169.16992286 -.00000050  00000+0  00000+0 0  9997
2 39620  65.6741 338.6296 0011190 328.9298  31.0161  2.13103277 79689
COSMOS 2500 (755)       
1 40001U 14032A   24169.34929788 -.00000050  00000+0  00000+0 0  9991
2 40001  65.6113 338.4287 0006230 183.9971 176.0098  2.13106155 77901
COSMOS 2501 (702K)      
1 40315U 14075A   24169.60253481  .00000085  00000+0  00000+0 0  9992
2 40315  63.6212 215.6620 0020814 210.7599 149.2028  2.13101574 74309
GPS BIIF-6  (PRN 06)    
1 39741U 14026A   24169.53983754 -.00000075  00000+0  00000+0 0  9994
2 39741  56.7103 359.8534 0031043 316.9528  42.8394  2.00568500 73905
GPS BIIF-7  (PRN 09)    
1 40105U 14045A   24170.13169860  .00000014  00000+0  00000+0 0  9995
2 40105  54.9315 117.5709 0025581 115.1620 245.0727  2.00566409 72341
GPS BIIF-8  (PRN 03)    
1 40294U 14068A   24169.00704341 -.00000074  00000+0  00000+0 0  9999
2 40294  56.4206  59.2472 0053885  62.1029 298.4791  2.00559874 70560
GPS BIIF-9  (PRN 26)    
1 40534U 15013A   24169.63687709  .00000039  00000+0  00000+0 0  9994
2 40534  53.3430 234.3794 0087718  29.7187 330.8549  2.00565578 67196
